[{"OBJECT_NAME":"OBJECT D","OBJECT_ID":"2024-173D","EPOCH":"2026-03-09T23:30:29.956896","MEAN_MOTION":15.27005733,"ECCENTRICITY":0.00090093,"INCLINATION":97.3606,"RA_OF_ASC_NODE":149.3901,"ARG_OF_PERICENTER":241.6081,"MEAN_ANOMALY":118.425,"EPHEMERIS_TYPE":0,"CLASSIFICATION_TYPE":"U","NORAD_CAT_ID":61230,"ELEMENT_SET_NO":999,"REV_AT_EPOCH":8130,"BSTAR":0.00072064626,"MEAN_MOTION_DOT":0.00019078,"MEAN_MOTION_DDOT":0},{"OBJECT_NAME":"STARLINK-32547","OBJECT_ID":"2024-207H","EPOCH":"2026-03-09T22:20:27.777120","MEAN_MOTION":15.27587154,"ECCENTRICITY":0.00027134,"INCLINATION":43.0018,"RA_OF_ASC_NODE":279.9755,"ARG_OF_PERICENTER":260.3906,"MEAN_ANOMALY":99.6639,"EPHEMERIS_TYPE":0,"CLASSIFICATION_TYPE":"U","NORAD_CAT_ID":61919,"ELEMENT_SET_NO":999,"REV_AT_EPOCH":7475,"BSTAR":0.00090826903,"MEAN_MOTION_DOT":0.00024822,"MEAN_MOTION_DDOT":0}]
